NORAD_CAT_ID,OBJECT_NAME,OBJECT_TYPE,EPOCH,MEAN_MOTION,ECCENTRICITY,INCLINATION,RA_OF_ASC_NODE,ARG_OF_PERICENTER,MEAN_ANOMALY,BSTAR,MEAN_MOTION_DOT,MEAN_MOTION_DDOT,TLE_LINE0,TLE_LINE1,TLE_LINE2,SEMIMAJOR_AXIS,PERIOD,APOGEE,PERIGEE,DECAYED
52835.0,STARLINK-4080,PAYLOAD,2022-10-14 20:00:01,15.08836225,0.0001456,53.2177,209.0232,59.4531,0.3892,9.9632e-05,1.298e-05,0.0,0 STARLINK-4080,1 52835U 22062F   22287.83334491  .00001298  00000-0  99632-4 0  9994,2 52835  53.2177 209.0232 0001456  59.4531   0.3892 15.08836225 18305,6917.892,95.438,540.764,538.75,0.0
52835.0,STARLINK-4080,PAYLOAD,2022-10-15 14:00:01,15.08827428,0.0001436,53.2154,205.6648,59.8337,116.1363,0.00097897,0.00015321,0.0,0 STARLINK-4080,1 52835U 22062F   22288.58334491  .00015321  00000-0  97897-3 0  9999,2 52835  53.2154 205.6648 0001436  59.8337 116.1363 15.08827428  1305,6917.919,95.438,540.7769999999998,538.79,0.0
52835.0,STARLINK-4080,PAYLOAD,2022-10-15 22:00:01,15.08852931,0.0001453999999999,53.2154,204.1692,58.3376,129.2679,-0.003545,-0.00056286,0.0,0 STARLINK-4080,1 52835U 22062F   22288.91668981 -.00056286  00000-0 -35450-2 0  9993,2 52835  53.2154 204.1692 0001454  58.3376 129.2679 15.08852931 18462,6917.840999999999,95.437,540.712,538.7,0.0
52835.0,STARLINK-4080,PAYLOAD,2022-10-16 14:00:01,15.08811319,0.000144,53.2152,201.1746,58.8671,151.8327,0.00042167,6.424e-05,0.0,0 STARLINK-4080,1 52835U 22062F   22289.58334491  .00006424  00000-0  42167-3 0  9994,2 52835  53.2152 201.1746 0001440  58.8671 151.8327 15.08811319 18562,6917.968000000003,95.439,540.8290000000002,538.837,0.0
52835.0,STARLINK-4080,PAYLOAD,2022-10-16 22:00:00,15.08832662,0.0001587,53.2155,199.6792,60.0858,162.1826,-0.00033663,-5.64e-05,0.0,0 STARLINK-4080,1 52835U 22062F   22289.91667824 -.00005640  00000-0 -33663-3 0  9992,2 52835  53.2155 199.6792 0001587  60.0858 162.1826 15.08832662  1308,6917.903,95.438,540.866,538.67,0.0
52835.0,STARLINK-4080,PAYLOAD,2022-10-17 14:00:01,15.08824614,0.0001485,53.2152,196.6853,59.1098,186.3461,0.0017277,0.00027304,0.0,0 STARLINK-4080,1 52835U 22062F   22290.58334491  .00027304  00000-0  17277-2 0  9999,2 52835  53.2152 196.6853 0001485  59.1098 186.3461 15.08824614 18716,6917.927,95.439,540.82,538.765,0.0
52835.0,STARLINK-4080,PAYLOAD,2022-10-17 22:00:00,15.08863611,0.0001551999999999,53.2155,195.19,56.7438,200.2876,-0.0029263,-0.00046589,0.0,0 STARLINK-4080,1 52835U 22062F   22290.91667824 -.00046589  00000-0 -29263-2 0  9991,2 52835  53.2155 195.1900 0001552  56.7438 200.2876 15.08863611  1305,6917.808000000001,95.436,540.747,538.6,0.0
52835.0,STARLINK-4080,PAYLOAD,2022-10-18 14:00:01,15.08813522,0.0001476,53.2153,192.1972,55.2332,224.9883,0.0038248,0.00061067,0.0,0 STARLINK-4080,1 52835U 22062F   22291.58334491  .00061067  00000-0  38248-2 0  9995,2 52835  53.2153 192.1972 0001476  55.2332 224.9883 15.08813522  1308,6917.9609999999975,95.439,540.847,538.805,0.0
52835.0,STARLINK-4080,PAYLOAD,2022-10-18 22:00:00,15.08872509,0.000158,53.2155,190.702,52.4949,239.3063,-0.0032695,-0.00051993,0.0,0 STARLINK-4080,1 52835U 22062F   22291.91667824 -.00051993  00000-0 -32695-2 0  9990,2 52835  53.2155 190.7020 0001580  52.4949 239.3063 15.08872509  1307,6917.781,95.435,540.739,538.553,0.0
52835.0,STARLINK-4080,PAYLOAD,2022-10-19 08:00:01,15.08850324,0.0001582,53.2157,188.8314,47.5014,348.8069,-0.00084269,-0.00013678,0.0,0 STARLINK-4080,1 52835U 22062F   22292.33334491 -.00013678  00000-0 -84269-3 0  9991,2 52835  53.2157 188.8314 0001582  47.5014 348.8069 15.08850324 18988,6917.849,95.437,540.808,538.619,0.0
52835.0,STARLINK-4080,PAYLOAD,2022-10-19 14:00:01,15.08831286,0.0001481,53.2159,187.708,54.729,260.2872,0.0018315999999999,0.00028975,0.0,0 STARLINK-4080,1 52835U 22062F   22292.58334491  .00028975  00000-0  18316-2 0  9991,2 52835  53.2159 187.7080 0001481  54.7290 260.2872 15.08831286  1305,6917.906999999997,95.438,540.797,538.747,0.0
52835.0,STARLINK-4080,PAYLOAD,2022-10-19 22:00:00,15.08841695,0.000168,53.2161,186.2128,53.3166,273.297,-0.00086975,-0.00014104,0.0,0 STARLINK-4080,1 52835U 22062F   22292.91667824 -.00014104  00000-0 -86975-3 0  9995,2 52835  53.2161 186.2128 0001680  53.3166 273.2970 15.08841695  1301,6917.875,95.437,540.9019999999998,538.578,0.0
52835.0,STARLINK-4080,PAYLOAD,2022-10-20 14:00:01,15.08800581,0.0001496999999999,53.2164,183.2175,57.019,292.7899,0.0031971,0.00050906,0.0,0 STARLINK-4080,1 52835U 22062F   22293.58334491  .00050906  00000-0  31971-2 0  9993,2 52835  53.2164 183.2175 0001497  57.0190 292.7899 15.08800581 19176,6918.001,95.44,540.9019999999998,538.83,0.0
52835.0,STARLINK-4080,PAYLOAD,2022-10-20 22:00:00,15.08843554,0.0001628,53.2169,181.723,52.2413,309.1398,-0.00078536,-0.00012767,0.0,0 STARLINK-4080,1 52835U 22062F   22293.91667824 -.00012767  00000-0 -78536-3 0  9993,2 52835  53.2169 181.7230 0001628  52.2413 309.1398 15.08843554  1307,6917.87,95.437,540.861,538.6080000000002,0.0
52835.0,STARLINK-4080,PAYLOAD,2022-10-21 06:00:00,15.0884737,0.0001646,53.2163,180.2264,48.3531,324.6139,-3.1745e-05,-7.93e-06,0.0,0 STARLINK-4080,1 52835U 22062F   22294.25001157 -.00000793  00000-0 -31745-4 0  9990,2 52835  53.2163 180.2264 0001646  48.3531 324.6139 15.08847370 19279,6917.858,95.437,540.862,538.5840000000002,0.0
52835.0,STARLINK-4080,PAYLOAD,2022-10-21 14:00:01,15.08828599,0.0001423,53.2164,178.7284,56.6567,327.925,0.00095324,0.00014911,0.0,0 STARLINK-4080,1 52835U 22062F   22294.58334491  .00014911  00000-0  95324-3 0  9993,2 52835  53.2164 178.7284 0001423  56.6567 327.9250 15.08828599  1305,6917.915,95.438,540.765,538.7959999999998,0.0
52835.0,STARLINK-4080,PAYLOAD,2022-10-21 22:00:00,15.08843645,0.0001565999999999,53.2164,177.2351,50.8251,345.3488,-0.00090257,-0.00014625,0.0,0 STARLINK-4080,1 52835U 22062F   22294.91667824 -.00014625  00000-0 -90257-3 0  9993,2 52835  53.2164 177.2351 0001566  50.8251 345.3488 15.08843645  1304,6917.869000000002,95.437,540.818,538.651,0.0
52835.0,STARLINK-4080,PAYLOAD,2022-10-22 08:00:01,15.08862071,0.0001574,53.2161,175.3642,52.669,87.9931,-0.0041066,-0.00065094,0.0,0 STARLINK-4080,1 52835U 22062F   22295.33334491 -.00065094  00000-0 -41066-2 0  9990,2 52835  53.2161 175.3642 0001574  52.6690  87.9931 15.08862071 19438,6917.813,95.436,540.7669999999998,538.589,0.0
52835.0,STARLINK-4080,PAYLOAD,2022-10-22 14:00:01,15.08863374,0.0001419999999999,53.216,174.2409,62.6035,356.8046,-0.0022370999999999,-0.00035738,0.0,0 STARLINK-4080,1 52835U 22062F   22295.58334491 -.00035738  00000-0 -22371-2 0  9997,2 52835  53.2160 174.2409 0001420  62.6035 356.8046 15.08863374 19476,6917.809,95.436,540.656,538.692,0.0
52835.0,STARLINK-4080,PAYLOAD,2022-10-22 22:00:00,15.08843616,0.0001633,53.2159,172.7462,59.7188,11.304,-0.00049551,-8.166e-05,0.0,0 STARLINK-4080,1 52835U 22062F   22295.91667824 -.00008166  00000-0 -49551-3 0  9998,2 52835  53.2159 172.7462 0001633  59.7188  11.3040 15.08843616  1305,6917.869000000002,95.437,540.864,538.605,0.0
52835.0,STARLINK-4080,PAYLOAD,2022-10-23 08:00:01,15.08877742,0.0001524,53.2155,170.8749,59.8499,115.7378,-0.0034509999999999,-0.00054849,0.0,0 STARLINK-4080,1 52835U 22062F   22296.33335648 -.00054849  00000-0 -34510-2 0  9998,2 52835  53.2155 170.8749 0001524  59.8499 115.7378 15.08877742 19582,6917.765,95.435,540.684,538.576,0.0
52835.0,STARLINK-4080,PAYLOAD,2022-10-23 14:00:01,15.08817747,0.0001443,53.2154,169.7518,64.536,29.7037,0.0030965,0.00049308,0.0,0 STARLINK-4080,1 52835U 22062F   22296.58334491  .00049308  00000-0  30965-2 0  9992,2 52835  53.2154 169.7518 0001443  64.5360  29.7037 15.08817747  1308,6917.948,95.439,540.812,538.815,0.0
52835.0,STARLINK-4080,PAYLOAD,2022-10-23 22:00:00,15.0885842,0.0001574,53.2152,168.2572,58.1759,47.6483,-0.0030729,-0.00048886,0.0,0 STARLINK-4080,1 52835U 22062F   22296.91667824 -.00048886  00000-0 -30729-2 0  9998,2 52835  53.2152 168.2572 0001574  58.1759  47.6483 15.08858420 19672,6917.824000000001,95.436,540.778,538.6,0.0
52835.0,STARLINK-4080,PAYLOAD,2022-10-24 14:00:01,15.08773011,0.0001453,53.2148,165.2626,63.9425,65.0551,0.0012945,0.00020336,0.0,0 STARLINK-4080,1 52835U 22062F   22297.58334491  .00020336  00000-0  12945-2 0  9991,2 52835  53.2148 165.2626 0001453  63.9425  65.0551 15.08773011  1307,6918.085,95.442,540.955,538.945,0.0
52835.0,STARLINK-4080,PAYLOAD,2022-10-24 22:00:00,15.08780279,0.0001543,53.2147,163.7681,55.7351,84.7851,0.0021958,0.00034774,0.0,0 STARLINK-4080,1 52835U 22062F   22297.91667824  .00034774  00000-0  21958-2 0  9992,2 52835  53.2147 163.7681 0001543  55.7351  84.7851 15.08780279  1302,6918.063,95.441,540.995,538.86,0.0
52835.0,STARLINK-4080,PAYLOAD,2022-10-25 00:00:00,15.087790300000002,0.0001568,53.2148,163.3943,53.6613,179.7423,0.0033875,0.00053947,0.0,0 STARLINK-4080,1 52835U 22062F   22298.00001157  .00053947  00000-0  33875-2 0  9998,2 52835  53.2148 163.3943 0001568  53.6613 179.7423 15.08779030 19835,6918.066999999999,95.441,541.0169999999998,538.847,0.0
52835.0,STARLINK-4080,PAYLOAD,2022-10-25 14:00:01,15.08809263,0.0001439,53.2146,160.7735,61.0883,102.5371,0.0020518,0.0003249,0.0,0 STARLINK-4080,1 52835U 22062F   22298.58334491  .00032490  00000-0  20518-2 0  9991,2 52835  53.2146 160.7735 0001439  61.0883 102.5371 15.08809263  1303,6917.974,95.439,540.835,538.844,0.0
52835.0,STARLINK-4080,PAYLOAD,2022-10-25 22:00:01,15.08824191,0.0001609,53.2145,159.2788,54.283,120.9794,-8.238200000000001e-05,-1.598e-05,0.0,0 STARLINK-4080,1 52835U 22062F   22298.91668981 -.00001598  00000-0 -82382-4 0  9998,2 52835  53.2145 159.2788 0001609  54.2830 120.9794 15.08824191  1308,6917.929,95.439,540.9069999999998,538.681,0.0
52835.0,STARLINK-4080,PAYLOAD,2022-10-26 08:00:01,15.0884262,0.0001524,53.2147,157.4071,55.4753,224.2606,-0.00098712,-0.00015965,0.0,0 STARLINK-4080,1 52835U 22062F   22299.33335648 -.00015965  00000-0 -98712-3 0  9992,2 52835  53.2147 157.4071 0001524  55.4753 224.2606 15.08842620 20036,6917.871999999999,95.437,540.7919999999998,538.683,0.0
